{
  "type": "FeatureCollection",
  "features": [
    {
      "type": "Feature",
      "properties": {
        "norad_id": 41589,
        "name": "EUTELSAT 117 WEST B (WAAS/PRN 131)",
        "group": "gnss",
        "lat": -0.002601330187926712,
        "lon": 139.09545285756087,
        "alt_km": 35785.08504101019,
        "timestamp": "2025-12-12T11:38:31.654493+00:00",
        "meta_object_name": "EUTELSAT 117 WEST B (WAAS/PRN 131)",
        "meta_object_id": "2016-038B",
        "meta_epoch": "2025-12-11T23:13:36.273216",
        "meta_mean_motion": 1.00275784,
        "meta_eccentricity": 5.99e-05,
        "meta_inclination": 0.0087,
        "meta_ra_of_asc_node": 154.6922,
        "meta_arg_of_pericenter": 250.9411,
        "meta_mean_anomaly": 266.7128,
        "meta_ephemeris_type": 0,
        "meta_classification_type": "U",
        "meta_norad_cat_id": 41589,
        "meta_element_set_no": 999,
        "meta_rev_at_epoch": 3478,
        "meta_bstar": 0,
        "meta_mean_motion_dot": -4e-08,
        "meta_mean_motion_ddot": 0,
        "tle_line1": "1 41589U 16038B   25345.96778094 -.00000004  00000+0  00000+0 0  9997",
        "tle_line2": "2 41589   0.0087 154.6922 0000599 250.9411 266.7128  1.00275784 34786"
      },
      "geometry": {
        "type": "Point",
        "coordinates": [
          139.09545285756087,
          -0.002601330187926712
        ]
      }
    },
    {
      "type": "Feature",
      "properties": {
        "norad_id": 41859,
        "name": "GSAT0207 (GALILEO 15)",
        "group": "gnss",
        "lat": 10.101963642327181,
        "lon": -80.81700532233597,
        "alt_km": 23227.03226708445,
        "timestamp": "2025-12-12T11:38:31.654507+00:00",
        "meta_object_name": "GSAT0207 (GALILEO 15)",
        "meta_object_id": "2016-069A",
        "meta_epoch": "2025-12-09T20:46:23.344608",
        "meta_mean_motion": 1.70474355,
        "meta_eccentricity": 0.00021941,
        "meta_inclination": 55.3802,
        "meta_ra_of_asc_node": 106.3298,
        "meta_arg_of_pericenter": 323.9491,
        "meta_mean_anomaly": 36.0038,
        "meta_ephemeris_type": 0,
        "meta_classification_type": "U",
        "meta_norad_cat_id": 41859,
        "meta_element_set_no": 999,
        "meta_rev_at_epoch": 5617,
        "meta_bstar": 0,
        "meta_mean_motion_dot": 1.1e-07,
        "meta_mean_motion_ddot": 0,
        "tle_line1": "1 41859U 16069A   25343.86554797  .00000011  00000+0  00000+0 0  9997",
        "tle_line2": "2 41859  55.3802 106.3298 0002194 323.9491  36.0038  1.70474355 56173"
      },
      "geometry": {
        "type": "Point",
        "coordinates": [
          -80.81700532233597,
          10.101963642327181
        ]
      }
    },
    {
      "type": "Feature",
      "properties": {
        "norad_id": 41860,
        "name": "GSAT0212 (GALILEO 16)",
        "group": "gnss",
        "lat": -53.466665550916034,
        "lon": -5.068489288523155,
        "alt_km": 23232.033364221737,
        "timestamp": "2025-12-12T11:38:31.654520+00:00",
        "meta_object_name": "GSAT0212 (GALILEO 16)",
        "meta_object_id": "2016-069B",
        "meta_epoch": "2025-12-11T11:29:42.448128",
        "meta_mean_motion": 1.70474595,
        "meta_eccentricity": 0.0002164,
        "meta_inclination": 55.3791,
        "meta_ra_of_asc_node": 106.2805,
        "meta_arg_of_pericenter": 27.6057,
        "meta_mean_anomaly": 332.3763,
        "meta_ephemeris_type": 0,
        "meta_classification_type": "U",
        "meta_norad_cat_id": 41860,
        "meta_element_set_no": 999,
        "meta_rev_at_epoch": 5645,
        "meta_bstar": 0,
        "meta_mean_motion_dot": 8e-08,
        "meta_mean_motion_ddot": 0,
        "tle_line1": "1 41860U 16069B   25345.47896352  .00000008  00000+0  00000+0 0  9990",
        "tle_line2": "2 41860  55.3791 106.2805 0002164  27.6057 332.3763  1.70474595 56452"
      },
      "geometry": {
        "type": "Point",
        "coordinates": [
          -5.068489288523155,
          -53.466665550916034
        ]
      }
    },
    {
      "type": "Feature",
      "properties": {
        "norad_id": 41861,
        "name": "GSAT0213 (GALILEO 17)",
        "group": "gnss",
        "lat": 25.784990190166873,
        "lon": 125.72472204871877,
        "alt_km": 23221.14968867373,
        "timestamp": "2025-12-12T11:38:31.654531+00:00",
        "meta_object_name": "GSAT0213 (GALILEO 17)",
        "meta_object_id": "2016-069C",
        "meta_epoch": "2025-12-11T06:14:19.190112",
        "meta_mean_motion": 1.70474845,
        "meta_eccentricity": 0.00023572,
        "meta_inclination": 55.3813,
        "meta_ra_of_asc_node": 106.2942,
        "meta_arg_of_pericenter": 283.5833,
        "meta_mean_anomaly": 76.361,
        "meta_ephemeris_type": 0,
        "meta_classification_type": "U",
        "meta_norad_cat_id": 41861,
        "meta_element_set_no": 999,
        "meta_rev_at_epoch": 5631,
        "meta_bstar": 0,
        "meta_mean_motion_dot": 9e-08,
        "meta_mean_motion_ddot": 0,
        "tle_line1": "1 41861U 16069C   25345.25994433  .00000009  00000+0  00000+0 0  9997",
        "tle_line2": "2 41861  55.3813 106.2942 0002357 283.5833  76.3610  1.70474845 56318"
      },
      "geometry": {
        "type": "Point",
        "coordinates": [
          125.72472204871877,
          25.784990190166873
        ]
      }
    },
    {
      "type": "Feature",
      "properties": {
        "norad_id": 41862,
        "name": "GSAT0214 (GALILEO 18)",
        "group": "gnss",
        "lat": -44.08008639535908,
        "lon": 64.29935323595416,
        "alt_km": 23223.265302444048,
        "timestamp": "2025-12-12T11:38:31.654542+00:00",
        "meta_object_name": "GSAT0214 (GALILEO 18)",
        "meta_object_id": "2016-069D",
        "meta_epoch": "2025-12-11T23:49:14.158272",
        "meta_mean_motion": 1.70474744,
        "meta_eccentricity": 0.0001362,
        "meta_inclination": 55.3798,
        "meta_ra_of_asc_node": 106.2667,
        "meta_arg_of_pericenter": 290.5776,
        "meta_mean_anomaly": 69.3783,
        "meta_ephemeris_type": 0,
        "meta_classification_type": "U",
        "meta_norad_cat_id": 41862,
        "meta_element_set_no": 999,
        "meta_rev_at_epoch": 5645,
        "meta_bstar": 0,
        "meta_mean_motion_dot": 6e-08,
        "meta_mean_motion_ddot": 0,
        "tle_line1": "1 41862U 16069D   25345.99252498  .00000006  00000+0  00000+0 0  9994",
        "tle_line2": "2 41862  55.3798 106.2667 0001362 290.5776  69.3783  1.70474744 56450"
      },
      "geometry": {
        "type": "Point",
        "coordinates": [
          64.29935323595416,
          -44.08008639535908
        ]
      }
    },
    {
      "type": "Feature",
      "properties": {
        "norad_id": 42709,
        "name": "SES-15 (WAAS/PRN 133)",
        "group": "gnss",
        "lat": 0.021451136820862044,
        "lon": 126.87129588913847,
        "alt_km": 35788.83489637848,
        "timestamp": "2025-12-12T11:38:31.654554+00:00",
        "meta_object_name": "SES-15 (WAAS/PRN 133)",
        "meta_object_id": "2017-026A",
        "meta_epoch": "2025-12-11T16:19:13.923264",
        "meta_mean_motion": 1.00267448,
        "meta_eccentricity": 3.86e-05,
        "meta_inclination": 0.0193,
        "meta_ra_of_asc_node": 345.5033,
        "meta_arg_of_pericenter": 311.6118,
        "meta_mean_anomaly": 259.1574,
        "meta_ephemeris_type": 0,
        "meta_classification_type": "U",
        "meta_norad_cat_id": 42709,
        "meta_element_set_no": 999,
        "meta_rev_at_epoch": 555,
        "meta_bstar": 0,
        "meta_mean_motion_dot": 6.8e-07,
        "meta_mean_motion_ddot": 0,
        "tle_line1": "1 42709U 17026A   25345.68002226  .00000068  00000+0  00000+0 0  9995",
        "tle_line2": "2 42709   0.0193 345.5033 0000386 311.6118 259.1574  1.00267448  5558"
      },
      "geometry": {
        "type": "Point",
        "coordinates": [
          126.87129588913847,
          0.021451136820862044
        ]
      }
    },
    {
      "type": "Feature",
      "properties": {
        "norad_id": 42738,
        "name": "QZS-2 (QZSS/PRN 194)",
        "group": "gnss",
        "lat": 21.739097552372602,
        "lon": 37.24493423796578,
        "alt_km": 37432.93499833573,
        "timestamp": "2025-12-12T11:38:31.654566+00:00",
        "meta_object_name": "QZS-2 (QZSS/PRN 194)",
        "meta_object_id": "2017-028A",
        "meta_epoch": "2025-12-11T14:08:41.422848",
        "meta_mean_motion": 1.00283351,
        "meta_eccentricity": 0.07577515,
        "meta_inclination": 39.7161,
        "meta_ra_of_asc_node": 245.9005,
        "meta_arg_of_pericenter": 269.4633,
        "meta_mean_anomaly": 279.1342,
        "meta_ephemeris_type": 0,
        "meta_classification_type": "U",
        "meta_norad_cat_id": 42738,
        "meta_element_set_no": 999,
        "meta_rev_at_epoch": 574,
        "meta_bstar": 0,
        "meta_mean_motion_dot": -1.96e-06,
        "meta_mean_motion_ddot": 0,
        "tle_line1": "1 42738U 17028A   25345.58936832 -.00000196  00000+0  00000+0 0  9990",
        "tle_line2": "2 42738  39.7161 245.9005 0757751 269.4633 279.1342  1.00283351  5740"
      },
      "geometry": {
        "type": "Point",
        "coordinates": [
          37.24493423796578,
          21.739097552372602
        ]
      }
    }
  ]
}